ONEWEB-0414             
1 50491U 21132Y   24229.18105737  .00000066  00000+0  13370-3 0  9997
2 50491  87.9109 108.8366 0001940  68.4215 291.7124 13.18684024134615
ONEWEB-0417             
1 50492U 21132Z   24228.96133072 -.00000333  00000+0 -87739-3 0  9995
2 50492  87.9115 108.8874 0002120  79.7481 280.3890 13.18685781133274
ONEWEB-0418             
1 50493U 21132AA  24228.97068190  .00000061  00000+0  12164-3 0  9991
2 50493  87.9111 108.8864 0002351  81.1281 279.0117 13.18689299133333
ONEWEB-0419             
1 50494U 21132AB  24228.91235483  .00000070  00000+0  14491-3 0  9992
2 50494  87.9107 108.9130 0001969  87.5200 272.6158 13.18685790133247
ONEWEB-0420             
1 50495U 21132AC  24229.18263513  .00000062  00000+0  12390-3 0  9995
2 50495  87.9108 108.8679 0001538  73.6545 286.4756 13.18688654134572
ONEWEB-0421             
1 50496U 21132AD  24229.17631976  .00000094  00000+0  20446-3 0  9993
2 50496  87.9114 108.8394 0001959  65.8241 294.3096 13.18689088134619
ONEWEB-0424             
1 50497U 21132AE  24228.90759753  .00000070  00000+0  14530-3 0  9999
2 50497  87.9111 108.8963 0001951  94.0938 266.0417 13.18687264133300
ONEWEB-0426             
1 50498U 21132AF  24229.17315450 -.00000114  00000+0 -32224-3 0  9993
2 50498  87.9104 108.8580 0002451  70.6498 289.4899 13.18687551134577
